ONEWEB-0033             
1 45142U 20008M   24301.86084393 -.00000710  00000+0 -20701-2 0  9998
2 45142  87.8918 155.2276 0001563  72.0211 288.1087 13.10373043229984
ONEWEB-0035             
1 45143U 20008N   24301.89239358  .00000552  00000+0  15453-2 0  9995
2 45143  87.8924 155.2100 0001567  76.5268 283.6034 13.10374125229718
ONEWEB-0036             
1 45144U 20008P   24301.88242255  .00000231  00000+0  62647-3 0  9997
2 45144  87.8920 155.1635 0001352  87.7466 272.3816 13.10376055230149
ONEWEB-0038             
1 45145U 20008Q   24301.82945276 -.00000290  00000+0 -85537-3 0  9995
2 45145  87.8898 140.0617 0002242  95.3699 264.7685 13.11418403232033
ONEWEB-0039             
1 45146U 20008R   24301.86414936 -.00000605  00000+0 -17708-2 0  9998
2 45146  87.8920 155.1865 0001463  95.6150 264.5145 13.10373588229938
ONEWEB-0040             
1 45147U 20008S   24301.85750563 -.00000628  00000+0 -18359-2 0  9995
2 45147  87.8925 155.1982 0001562  81.7352 278.3952 13.10372085229631
ONEWEB-0043             
1 45149U 20008U   24301.85916307 -.00000542  00000+0 -15890-2 0  9999
2 45149  87.8920 155.1971 0001449  99.6203 260.5088 13.10373025229956
ONEWEB-0044             
1 45150U 20008V   24301.88741091  .00000540  00000+0  15098-2 0  9996
2 45150  87.8921 155.1857 0001492  90.6227 269.5072 13.10375563230253
